     2.11           N: GPS NAV DATA                         RINEX VERSION / TYPE
teqc  2015Nov6      anonyme             20160623 15:43:20UTCPGM / RUN BY / DATE
    17                                                      LEAP SECONDS
    6.5193D-09  2.2352D-08 -5.9605D-08 -1.1921D-07          ION ALPHA
    8.6016D+04  9.8304D+04 -6.5536D+04 -5.2429D+05          ION BETA
    0.000000000000D+00-2.664535259100D-15   405504     1900 DELTA-UTC: A0,A1,T,W
Linux 2.4.21-27.ELsmp|Opteron|gcc|Linux x86_64|=+           COMMENT
teqc  2016Apr1      IGN                 20160609 00:57:06UTCCOMMENT
                                                            END OF HEADER
16 16  6 13 16  0  0.0-1.110788434744D-05 2.387423592154D-12 0.000000000000D+00
    1.600000000000D+01-3.068750000000D+01 3.938021177246D-09 1.402746310060D+00
   -1.261010766029D-06 8.733209222555D-03 8.687376976013D-06 5.153775470734D+03
    1.440000000000D+05-5.587935447693D-09 1.720039008723D+00 1.434236764908D-07
    9.906208480660D-01 2.293437500000D+02 3.926547435776D-01-7.832826268654D-09
   -2.528676758108D-10 1.000000000000D+00 1.901000000000D+03 0.000000000000D+00
    2.000000000000D+00 0.000000000000D+00-1.071020960808D-08 1.600000000000D+01
    1.368300000000D+05 4.000000000000D+00
20 16  6 13 16  0  0.0 4.182062111795D-04 2.273736754432D-12 0.000000000000D+00
    7.600000000000D+01-2.140625000000D+01 5.071996983319D-09-2.580729190072D-01
   -1.031905412674D-06 4.562672809698D-03 9.650364518166D-06 5.153753080368D+03
    1.440000000000D+05-7.264316082001D-08-1.578139580145D+00 1.005828380585D-07
    9.259176944971D-01 1.754062500000D+02 1.377835480607D+00-8.345704774960D-09
   -9.428964182777D-11 1.000000000000D+00 1.901000000000D+03 0.000000000000D+00
    2.000000000000D+00 0.000000000000D+00-8.381903171539D-09 7.600000000000D+01
    1.368300000000D+05 4.000000000000D+00
26 16  6 13 16  0  0.0-3.945990465581D-04-1.125499693444D-11 0.000000000000D+00
    6.800000000000D+01-3.993750000000D+01 4.598048670040D-09 2.085434029395D+00
   -1.909211277962D-06 1.014824723825D-03 8.301809430122D-06 5.153776195526D+03
    1.440000000000D+05-2.980232238770D-08 1.640829366375D+00 5.029141902924D-08
    9.602841534723D-01 2.206562500000D+02 2.020709593294D-01-8.116409509606D-09
   -1.521491947675D-10 1.000000000000D+00 1.901000000000D+03 0.000000000000D+00
    2.000000000000D+00 0.000000000000D+00 6.984919309616D-09 6.800000000000D+01
    1.368300000000D+05 4.000000000000D+00
 8 16  6 13 16  0  0.0-3.887712955475D-05-1.477928890381D-12 0.000000000000D+00
    5.100000000000D+01 1.531250000000D+00 4.484472349020D-09 1.420535687950D+00
   -3.539025783539D-08 1.726562390104D-03 7.456168532372D-06 5.153703824997D+03
    1.440000000000D+05-3.352761268616D-08 2.688655136044D+00-7.450580596924D-08
    9.636732548249D-01 2.327500000000D+02-1.077088054801D+00-8.056764144726D-09
    8.928943695530D-11 1.000000000000D+00 1.901000000000D+03 0.000000000000D+00
    2.000000000000D+00 0.000000000000D+00 4.656612873077D-09 5.100000000000D+01
    1.368300000000D+05
32 16  6 13 16  0  0.0-2.392940223217D-05-7.958078640513D-12 0.000000000000D+00
    1.600000000000D+01 6.350000000000D+01 4.542331843993D-09 8.726876690700D-01
    3.095716238022D-06 4.685466410592D-04 8.350238204002D-06 5.153619842529D+03
    1.440000000000D+05 1.676380634308D-08-4.518926604917D-01-1.490116119385D-08
    9.597404672828D-01 2.151875000000D+02-2.312656952428D+00-8.071764590056D-09
    2.600108184314D-10 1.000000000000D+00 1.901000000000D+03 0.000000000000D+00
    2.000000000000D+00 0.000000000000D+00 4.656612873077D-10 1.600000000000D+01
    1.368300000000D+05
 3 16  6 13 16  0  0.0-6.693461909890D-05-3.410605131648D-12 0.000000000000D+00
    1.020000000000D+02-2.409375000000D+01 4.346966786528D-09-5.271061724078D-01
   -1.164153218269D-06 2.271370030940D-04 9.445473551750D-06 5.153685031891D+03
    1.440000000000D+05-1.862645149231D-09-1.492718184287D+00 1.192092895508D-07
    9.589233675559D-01 1.975000000000D+02-1.686542667089D+00-7.874613849879D-09
   -3.857303365606D-11 1.000000000000D+00 1.901000000000D+03 0.000000000000D+00
    2.000000000000D+00 0.000000000000D+00 1.862645149231D-09 1.020000000000D+02
    1.368300000000D+05
14 16  6 13 16  0  0.0-1.915311440825D-05-2.046363078989D-12 0.000000000000D+00
    2.600000000000D+01 6.453125000000D+01 4.519116636459D-09 3.144446019713D-01
    3.192573785782D-06 8.740825345740D-03 8.063390851021D-06 5.154025871277D+03
    1.440000000000D+05-1.229345798492D-07-3.695809427812D-01 3.352761268616D-08
    9.640643264746D-01 2.266562500000D+02-1.963023731521D+00-8.179983801426D-09
    2.264380072337D-10 1.000000000000D+00 1.901000000000D+03 0.000000000000D+00
    2.000000000000D+00 0.000000000000D+00-9.313225746155D-09 2.600000000000D+01
    1.368300000000D+05
22 16  6 13 16  0  0.0 3.208206035197D-04-8.640199666843D-12 0.000000000000D+00
    4.100000000000D+01-2.737500000000D+01 5.247718704027D-09 9.938781624434D-02
   -1.307576894760D-06 7.676513982005D-03 8.992850780487D-06 5.153800828934D+03
    1.440000000000D+05-2.309679985046D-07-1.525716855820D+00 1.508742570877D-07
    9.225517174906D-01 1.887187500000D+02-1.905429398680D+00-8.392849970562D-09
   -1.035757452028D-10 1.000000000000D+00 1.901000000000D+03 0.000000000000D+00
    2.000000000000D+00 0.000000000000D+00-1.769512891769D-08 4.100000000000D+01
    1.368300000000D+05
27 16  6 13 16  0  0.0 1.031262800097D-04 4.206412995700D-12 0.000000000000D+00
    1.040000000000D+02 1.593750000000D+00 4.363038819122D-09 5.452138812723D-01
    2.030283212662D-07 3.719029715285D-03 7.390975952148D-06 5.153642129898D+03
    1.440000000000D+05-1.490116119385D-08 2.691486246794D+00 0.000000000000D+00
    9.717656553573D-01 2.370000000000D+02 3.000295207024D-01-8.025334174988D-09
    8.000333034941D-11 1.000000000000D+00 1.901000000000D+03 0.000000000000D+00
    2.800000000000D+00 0.000000000000D+00 1.396983861923D-09 1.040000000000D+02
    1.368300000000D+05
11 16  6 13 16  0  0.0-6.508012302220D-04-2.728484105319D-12 0.000000000000D+00
    9.800000000000D+01-4.625000000000D+00 5.939533309629D-09-2.153752262735D+00
   -1.061707735062D-07 1.645839575212D-02 4.462897777557D-06 5.153664667130D+03
    1.440000000000D+05 2.924352884293D-07-2.912451069609D+00 1.061707735062D-07
    8.971089271363D-01 2.568125000000D+02 1.530723053651D+00-8.579642774009D-09
    9.107522375151D-11 1.000000000000D+00 1.901000000000D+03 0.000000000000D+00
    4.000000000000D+00 0.000000000000D+00-1.210719347000D-08 9.800000000000D+01
    1.396200000000D+05
18 16  6 13 16  0  0.0 5.260552279651D-04 3.979039320257D-12 0.000000000000D+00
    9.100000000000D+01-3.428125000000D+01 5.077711507066D-09 2.102479602680D+00
   -1.857057213783D-06 1.723370386753D-02 9.907409548759D-06 5.153692689896D+03
    1.440000000000D+05 1.601874828339D-07-1.526332004095D+00-3.781169652939D-07
    9.246467931932D-01 1.653750000000D+02-1.878134665219D+00-8.111052143593D-09
   -9.571827276455D-11 1.000000000000D+00 1.901000000000D+03 0.000000000000D+00
    2.000000000000D+00 0.000000000000D+00-1.210719347000D-08 9.100000000000D+01
    1.379820000000D+05 4.000000000000D+00
24 16  6 13 16  0  0.0-1.850584521890D-05-5.684341886081D-13 0.000000000000D+00
    3.900000000000D+01 1.271875000000D+01 5.114855911422D-09-1.325799134890D+00
    6.332993507385D-07 4.418862750754D-03 4.632398486137D-06 5.153613046646D+03
    1.440000000000D+05 7.823109626770D-08 5.769801920781D-01-9.313225746155D-09
    9.494658464807D-01 2.827187500000D+02 4.161442252316D-01-8.463923984979D-09
   -1.035757429169D-11 1.000000000000D+00 1.901000000000D+03 0.000000000000D+00
    2.000000000000D+00 0.000000000000D+00 2.328306436539D-09 3.900000000000D+01
    1.368180000000D+05 4.000000000000D+00
15 16  6 13 16  0  0.0-3.151185810566D-04-1.591615728103D-12 0.000000000000D+00
    2.200000000000D+01 6.128125000000D+01 5.228432070896D-09-2.475346511089D-01
    3.365799784660D-06 8.159172954038D-03 7.841736078262D-06 5.153609754562D+03
    1.440000000000D+05 1.192092895508D-07-5.063257400080D-01 7.264316082001D-08
    9.308310423806D-01 2.122187500000D+02 4.825131173052D-01-8.540712897831D-09
    2.450102056585D-10 1.000000000000D+00 1.901000000000D+03 0.000000000000D+00
    2.000000000000D+00 0.000000000000D+00-1.071020960808D-08 2.200000000000D+01
    1.368180000000D+05 4.000000000000D+00
10 16  6 13 16  0  0.0-4.459219053388D-05-8.185452315956D-12 0.000000000000D+00
    1.070000000000D+02-2.259375000000D+01 4.401254758498D-09 2.382518884720D+00
   -1.076608896255D-06 1.551361288875D-03 9.967014193535D-06 5.153684228897D+03
    1.440000000000D+05-9.313225746155D-09-1.496713145847D+00-2.793967723846D-08
    9.591588842004D-01 1.842187500000D+02-2.708959755802D+00-7.940687904382D-09
   -1.314340461842D-10 1.000000000000D+00 1.901000000000D+03 0.000000000000D+00
    2.000000000000D+00 0.000000000000D+00 2.328306436539D-09 1.070000000000D+02
    1.368180000000D+05 4.000000000000D+00
19 16  6 13 16  0  0.0-5.254885181785D-04 1.136868377216D-13 0.000000000000D+00
    9.900000000000D+01 3.031250000000D+00 4.292321649569D-09-2.613212330737D+00
    1.806765794754D-07 1.078333635814D-02 6.822869181633D-06 5.153623073578D+03
    1.440000000000D+05 1.415610313416D-07 2.790189629500D+00-1.396983861923D-07
    9.739673397520D-01 2.531562500000D+02 7.889996394934D-01-7.878185300897D-09
    1.975082270104D-10 1.000000000000D+00 1.901000000000D+03 0.000000000000D+00
    2.800000000000D+00 0.000000000000D+00-1.490116119385D-08 9.900000000000D+01
    1.368180000000D+05 4.000000000000D+00
